1 99489U          22016.00000000  .00000000  00000-0  57534-2 0    09
2 99489  97.5121  85.6393 0012811 246.2946 131.6880 15.14316081    03
# 20220116.75-20220116.75, 16 measurements, 0.063 kHz rms
